{"type": "FeatureCollection", "features": [ {"type": "Feature", "properties": {"norad_id": 38487, "name": "COSMOS 2251 DEB", "group": "cosmos-2251-debris", "lat": 33.41671478181361, "lon": 44.32300332919284, "alt_km": 525.9160155985601, "timestamp": "2025-12-12T22:42:12.943741+00:00", "meta": {"OBJECT_NAME": "COSMOS 2251 DEB", "OBJECT_ID": "1993-036BTX", "EPOCH": "2025-12-11T10:09:12.119616", "MEAN_MOTION": 15.17187226, "ECCENTRICITY": 0.00216469, "INCLINATION": 73.975, "RA_OF_ASC_NODE": 36.5808, "ARG_OF_PERICENTER": 208.4932, "MEAN_ANOMALY": 151.5082, "EPHEMERIS_TYPE": 0, "CLASSIFICATION_TYPE": "U", "NORAD_CAT_ID": 38487, "ELEMENT_SET_NO": 999, "REV_AT_EPOCH": 66780, "BSTAR": 0.0038669119, "MEAN_MOTION_DOT": 0.00078094, "MEAN_MOTION_DDOT": 0}, "tle": {"line1": "1 38487U 93036BTX 25345.42305694  .00078094  00000+0  38669-2 0  9994", "line2": "2 38487  73.9750  36.5808 0021646 208.4932 151.5082 15.17187226667809"}}, "geometry": {"type": "Point", "coordinates": [44.32300332919284, 33.41671478181361]}}, {"type": "Feature", "properties": {"norad_id": 39109, "name": "COSMOS 2251 DEB", "group": "cosmos-2251-debris", "lat": -70.62546180085738, "lon": 170.2239807840243, "alt_km": 637.0245287870775, "timestamp": "2025-12-12T22:42:12.943751+00:00", "meta": {"OBJECT_NAME": "COSMOS 2251 DEB", "OBJECT_ID": "1993-036BTY", "EPOCH": "2025-12-09T10:58:18.988608", "MEAN_MOTION": 14.70683686, "ECCENTRICITY": 0.00592583, "INCLINATION": 74.0426, "RA_OF_ASC_NODE": 231.4464, "ARG_OF_PERICENTER": 335.6145, "MEAN_ANOMALY": 202.0339, "EPHEMERIS_TYPE": 0, "CLASSIFICATION_TYPE": "U", "NORAD_CAT_ID": 39109, "ELEMENT_SET_NO": 999, "REV_AT_EPOCH": 65125, "BSTAR": 0.00089315049, "MEAN_MOTION_DOT": 5.561e-05, "MEAN_MOTION_DDOT": 0}, "tle": {"line1": "1 39109U 93036BTY 25343.45716422  .00005561  00000+0  89315-3 0  9996", "line2": "2 39109  74.0426 231.4464 0059258 335.6145 202.0339 14.70683686651254"}}, "geometry": {"type": "Point", "coordinates": [170.2239807840243, -70.62546180085738]}}, {"type": "Feature", "properties": {"norad_id": 39110, "name": "COSMOS 2251 DEB", "group": "cosmos-2251-debris", "lat": 68.38430780468352, "lon": -165.44978697208867, "alt_km": 713.7555502011337, "timestamp": "2025-12-12T22:42:12.943760+00:00", "meta": {"OBJECT_NAME": "COSMOS 2251 DEB", "OBJECT_ID": "1993-036BTZ", "EPOCH": "2025-12-03T13:14:13.055136", "MEAN_MOTION": 14.72215365, "ECCENTRICITY": 0.00964609, "INCLINATION": 73.9598, "RA_OF_ASC_NODE": 79.4668, "ARG_OF_PERICENTER": 313.6965, "MEAN_ANOMALY": 59.6182, "EPHEMERIS_TYPE": 0, "CLASSIFICATION_TYPE": "U", "NORAD_CAT_ID": 39110, "ELEMENT_SET_NO": 999, "REV_AT_EPOCH": 62349, "BSTAR": 0.00066560445, "MEAN_MOTION_DOT": 4.484e-05, "MEAN_MOTION_DDOT": 0}, "tle": {"line1": "1 39110U 93036BTZ 25337.55153999  .00004484  00000+0  66560-3 0  9996", "line2": "2 39110  73.9598  79.4668 0096460 313.6965  59.6182 14.72215365623496"}}, "geometry": {"type": "Point", "coordinates": [-165.44978697208867, 68.38430780468352]}}, {"type": "Feature", "properties": {"norad_id": 39111, "name": "COSMOS 2251 DEB", "group": "cosmos-2251-debris", "lat": 61.49974957022408, "lon": 72.60494723475925, "alt_km": 512.9250923603486, "timestamp": "2025-12-12T22:42:12.943770+00:00", "meta": {"OBJECT_NAME": "COSMOS 2251 DEB", "OBJECT_ID": "1993-036BUA", "EPOCH": "2025-12-01T22:58:55.551360", "MEAN_MOTION": 15.11912111, "ECCENTRICITY": 0.00109111, "INCLINATION": 74.0059, "RA_OF_ASC_NODE": 63.5328, "ARG_OF_PERICENTER": 39.1207, "MEAN_ANOMALY": 321.0773, "EPHEMERIS_TYPE": 0, "CLASSIFICATION_TYPE": "U", "NORAD_CAT_ID": 39111, "ELEMENT_SET_NO": 999, "REV_AT_EPOCH": 8982, "BSTAR": 0.0056424119, "MEAN_MOTION_DOT": 0.00098096, "MEAN_MOTION_DDOT": 0}, "tle": {"line1": "1 39111U 93036BUA 25335.95758740  .00098096  00000+0  56424-2 0  9993", "line2": "2 39111  74.0059  63.5328 0010911  39.1207 321.0773 15.11912111 89826"}}, "geometry": {"type": "Point", "coordinates": [72.60494723475925, 61.49974957022408]}}, {"type": "Feature", "properties": {"norad_id": 39546, "name": "COSMOS 2251 DEB", "group": "cosmos-2251-debris", "lat": 15.663775163731609, "lon": -48.23801216137023, "alt_km": 612.6822672012286, "timestamp": "2025-12-12T22:42:12.943780+00:00", "meta": {"OBJECT_NAME": "COSMOS 2251 DEB", "OBJECT_ID": "1993-036BUC", "EPOCH": "2025-12-12T02:39:31.562208", "MEAN_MOTION": 14.92027517, "ECCENTRICITY": 0.00441282, "INCLINATION": 73.9967, "RA_OF_ASC_NODE": 138.0578, "ARG_OF_PERICENTER": 298.1056, "MEAN_ANOMALY": 61.5669, "EPHEMERIS_TYPE": 0, "CLASSIFICATION_TYPE": "U", "NORAD_CAT_ID": 39546, "ELEMENT_SET_NO": 999, "REV_AT_EPOCH": 64427, "BSTAR": 0.0021038636, "MEAN_MOTION_DOT": 0.00021778, "MEAN_MOTION_DDOT": 0}, "tle": {"line1": "1 39546U 93036BUC 25346.11078197  .00021778  00000+0  21039-2 0  9993", "line2": "2 39546  73.9967 138.0578 0044128 298.1056  61.5669 14.92027517644276"}}, "geometry": {"type": "Point", "coordinates": [-48.23801216137023, 15.663775163731609]}}, {"type": "Feature", "properties": {"norad_id": 39547, "name": "COSMOS 2251 DEB", "group": "cosmos-2251-debris", "lat": 16.900441009020387, "lon": -167.04118126946517, "alt_km": 559.9100161398283, "timestamp": "2025-12-12T22:42:12.943790+00:00", "meta": {"OBJECT_NAME": "COSMOS 2251 DEB", "OBJECT_ID": "1993-036BUD", "EPOCH": "2025-12-11T09:19:23.142720", "MEAN_MOTION": 15.03149488, "ECCENTRICITY": 0.00052092, "INCLINATION": 74.0018, "RA_OF_ASC_NODE": 21.1464, "ARG_OF_PERICENTER": 16.2917, "MEAN_ANOMALY": 0.6798, "EPHEMERIS_TYPE": 0, "CLASSIFICATION_TYPE": "U", "NORAD_CAT_ID": 39547, "ELEMENT_SET_NO": 999, "REV_AT_EPOCH": 64005, "BSTAR": 0.0051209995, "MEAN_MOTION_DOT": 0.00069871, "MEAN_MOTION_DDOT": 0}, "tle": {"line1": "1 39547U 93036BUD 25345.38846230  .00069871  00000+0  51210-2 0  9993", "line2": "2 39547  74.0018  21.1464 0005209  16.2917   0.6798 15.03149488640058"}}, "geometry": {"type": "Point", "coordinates": [-167.04118126946517, 16.900441009020387]}}, {"type": "Feature", "properties": {"norad_id": 39553, "name": "COSMOS 2251 DEB", "group": "cosmos-2251-debris", "lat": -68.03362292768438, "lon": -165.10669450894682, "alt_km": 1025.8844512305795, "timestamp": "2025-12-12T22:42:12.943799+00:00", "meta": {"OBJECT_NAME": "COSMOS 2251 DEB", "OBJECT_ID": "1993-036BUK", "EPOCH": "2025-12-07T06:00:50.455872", "MEAN_MOTION": 13.99876591, "ECCENTRICITY": 0.02014092, "INCLINATION": 74.0304, "RA_OF_ASC_NODE": 339.5232, "ARG_OF_PERICENTER": 116.8065, "MEAN_ANOMALY": 245.3825, "EPHEMERIS_TYPE": 0, "CLASSIFICATION_TYPE": "U", "NORAD_CAT_ID": 39553, "ELEMENT_SET_NO": 999, "REV_AT_EPOCH": 75540, "BSTAR": 0.00088887208, "MEAN_MOTION_DOT": 1.532e-05, "MEAN_MOTION_DDOT": 0}, "tle": {"line1": "1 39553U 93036BUK 25341.25058398  .00001532  00000+0  88887-3 0  9993", "line2": "2 39553  74.0304 339.5232 0201409 116.8065 245.3825 13.99876591755403"}}, "geometry": {"type": "Point", "coordinates": [-165.10669450894682, -68.03362292768438]}}, {"type": "Feature", "properties": {"norad_id": 39554, "name": "COSMOS 2251 DEB", "group": "cosmos-2251-debris", "lat": 2.887094285869556, "lon": -94.98718113541359, "alt_km": 535.9650553204137, "timestamp": "2025-12-12T22:42:12.943809+00:00", "meta": {"OBJECT_NAME": "COSMOS 2251 DEB", "OBJECT_ID": "1993-036BUL", "EPOCH": "2025-12-10T06:12:03.924864", "MEAN_MOTION": 15.10130993, "ECCENTRICITY": 0.0002993, "INCLINATION": 74.0187, "RA_OF_ASC_NODE": 269.7383, "ARG_OF_PERICENTER": 74.7531, "MEAN_ANOMALY": 81.5927, "EPHEMERIS_TYPE": 0, "CLASSIFICATION_TYPE": "U", "NORAD_CAT_ID": 39554, "ELEMENT_SET_NO": 999, "REV_AT_EPOCH": 64347, "BSTAR": 0.0046896, "MEAN_MOTION_DOT": 0.000773, "MEAN_MOTION_DDOT": 0}, "tle": {"line1": "1 39554U 93036BUL 25344.25837876  .00077300  00000+0  46896-2 0  9992", "line2": "2 39554  74.0187 269.7383 0002993  74.7531  81.5927 15.10130993643471"}}, "geometry": {"type": "Point", "coordinates": [-94.98718113541359, 2.887094285869556]}}, {"type": "Feature", "properties": {"norad_id": 39583, "name": "COSMOS 2251 DEB", "group": "cosmos-2251-debris", "lat": 6.381442783939775, "lon": -111.31480398837344, "alt_km": 597.4668681392759, "timestamp": "2025-12-12T22:42:12.943819+00:00", "meta": {"OBJECT_NAME": "COSMOS 2251 DEB", "OBJECT_ID": "1993-036BUN", "EPOCH": "2025-12-08T00:17:58.189056", "MEAN_MOTION": 14.60283512, "ECCENTRICITY": 0.01370352, "INCLINATION": 73.9395, "RA_OF_ASC_NODE": 256.3131, "ARG_OF_PERICENTER": 10.5711, "MEAN_ANOMALY": 349.8282, "EPHEMERIS_TYPE": 0, "CLASSIFICATION_TYPE": "U", "NORAD_CAT_ID": 39583, "ELEMENT_SET_NO": 999, "REV_AT_EPOCH": 61710, "BSTAR": 0.0025519779, "MEAN_MOTION_DOT": 0.00014063, "MEAN_MOTION_DDOT": 0}, "tle": {"line1": "1 39583U 93036BUN 25342.01247904  .00014063  00000+0  25520-2 0  9991", "line2": "2 39583  73.9395 256.3131 0137035  10.5711 349.8282 14.60283512617104"}}, "geometry": {"type": "Point", "coordinates": [-111.31480398837344, 6.381442783939775]}}, {"type": "Feature", "properties": {"norad_id": 39585, "name": "COSMOS 2251 DEB", "group": "cosmos-2251-debris", "lat": -10.956469317665142, "lon": 124.10101404503264, "alt_km": 730.5940976288111, "timestamp": "2025-12-12T22:42:12.943829+00:00", "meta": {"OBJECT_NAME": "COSMOS 2251 DEB", "OBJECT_ID": "1993-036BUQ", "EPOCH": "2025-12-09T14:49:35.322816", "MEAN_MOTION": 14.58655096, "ECCENTRICITY": 0.0065405, "INCLINATION": 74.0411, "RA_OF_ASC_NODE": 307.2584, "ARG_OF_PERICENTER": 69.0888, "MEAN_ANOMALY": 291.7262, "EPHEMERIS_TYPE": 0, "CLASSIFICATION_TYPE": "U", "NORAD_CAT_ID": 39585, "ELEMENT_SET_NO": 999, "REV_AT_EPOCH": 62475, "BSTAR": 0.00049693, "MEAN_MOTION_DOT": 2.356e-05, "MEAN_MOTION_DDOT": 0}, "tle": {"line1": "1 39585U 93036BUQ 25343.61776994  .00002356  00000+0  49693-3 0  9996", "line2": "2 39585  74.0411 307.2584 0065405  69.0888 291.7262 14.58655096624759"}}, "geometry": {"type": "Point", "coordinates": [124.10101404503264, -10.956469317665142]}}]}